[{"OBJECT_NAME":"TRANSPORTER-12 OBJECT BT","OBJECT_ID":"2025-009BT","EPOCH":"2026-03-09T17:08:24.281088","MEAN_MOTION":15.27872239,"ECCENTRICITY":0.00036816,"INCLINATION":97.4094,"RA_OF_ASC_NODE":151.5992,"ARG_OF_PERICENTER":313.5044,"MEAN_ANOMALY":46.5889,"EPHEMERIS_TYPE":0,"CLASSIFICATION_TYPE":"U","NORAD_CAT_ID":62674,"ELEMENT_SET_NO":999,"REV_AT_EPOCH":12136,"BSTAR":0.000510288,"MEAN_MOTION_DOT":0.00013824,"MEAN_MOTION_DDOT":0},{"OBJECT_NAME":"STARLINK-36523","OBJECT_ID":"2026-008R","EPOCH":"2026-03-09T09:27:48.081600","MEAN_MOTION":15.27607881,"ECCENTRICITY":0.00024545,"INCLINATION":43.0011,"RA_OF_ASC_NODE":207.1838,"ARG_OF_PERICENTER":274.7498,"MEAN_ANOMALY":85.3073,"EPHEMERIS_TYPE":0,"CLASSIFICATION_TYPE":"U","NORAD_CAT_ID":67460,"ELEMENT_SET_NO":999,"REV_AT_EPOCH":952,"BSTAR":0.00094342193,"MEAN_MOTION_DOT":0.00025813,"MEAN_MOTION_DDOT":0}]
